{"type": "FeatureCollection", "features": [{"type": "Feature", "geometry": {"type": "Point", "coordinates": [77.75929388749094, 13.426624478328224]}, "properties": {"sink_id": 66, "volume_m3": 166363.0, "max_depth_m": 1.48, "catchment_m2": 7200.0}}, {"type": "Feature", "geometry": {"type": "Point", "coordinates": [77.73396139647876, 13.458424839386055]}, "properties": {"sink_id": 37, "volume_m3": 88984.0, "max_depth_m": 5.84, "catchment_m2": 10800.0}}, {"type": "Feature", "geometry": {"type": "Point", "coordinates": [77.73962078276871, 13.483218341227754]}, "properties": {"sink_id": 17, "volume_m3": 55090.0, "max_depth_m": 3.93, "catchment_m2": 75600.0}}, {"type": "Feature", "geometry": {"type": "Point", "coordinates": [77.74743612574056, 13.390781698491855]}, "properties": {"sink_id": 99, "volume_m3": 34161.0, "max_depth_m": 0.72, "catchment_m2": 30600.0}}, {"type": "Feature", "geometry": {"type": "Point", "coordinates": [77.73557836399019, 13.482409857472046]}, "properties": {"sink_id": 19, "volume_m3": 30591.0, "max_depth_m": 6.3, "catchment_m2": 60300.0}}, {"type": "Feature", "geometry": {"type": "Point", "coordinates": [77.72452908599551, 13.453843431437045]}, "properties": {"sink_id": 41, "volume_m3": 27440.0, "max_depth_m": 1.6, "catchment_m2": 6300.0}}, {"type": "Feature", "geometry": {"type": "Point", "coordinates": [77.72991897770022, 13.374342528792468]}, "properties": {"sink_id": 116, "volume_m3": 24120.0, "max_depth_m": 3.43, "catchment_m2": 6300.0}}, {"type": "Feature", "geometry": {"type": "Point", "coordinates": [77.74743612574056, 13.462736752749828]}, "properties": {"sink_id": 34, "volume_m3": 23869.0, "max_depth_m": 0.52, "catchment_m2": 76500.0}}, {"type": "Feature", "geometry": {"type": "Point", "coordinates": [77.79944858069108, 13.479984406204924]}, "properties": {"sink_id": 22, "volume_m3": 20024.0, "max_depth_m": 0.65, "catchment_m2": 8386200.0}}, {"type": "Feature", "geometry": {"type": "Point", "coordinates": [77.72641554809216, 13.482948846642518]}, "properties": {"sink_id": 16, "volume_m3": 19296.0, "max_depth_m": 2.74, "catchment_m2": 36000.0}}, {"type": "Feature", "geometry": {"type": "Point", "coordinates": [77.74366320154725, 13.477828449523036]}, "properties": {"sink_id": 24, "volume_m3": 17343.0, "max_depth_m": 1.63, "catchment_m2": 171900.0}}, {"type": "Feature", "geometry": {"type": "Point", "coordinates": [77.74015977193919, 13.44441112095379]}, "properties": {"sink_id": 47, "volume_m3": 15787.0, "max_depth_m": 0.56, "catchment_m2": 11700.0}}, {"type": "Feature", "geometry": {"type": "Point", "coordinates": [77.74069876110966, 13.436326283396715]}, "properties": {"sink_id": 54, "volume_m3": 14887.0, "max_depth_m": 0.39, "catchment_m2": 900.0}}, {"type": "Feature", "geometry": {"type": "Point", "coordinates": [77.74770562032579, 13.43012790793629]}, "properties": {"sink_id": 63, "volume_m3": 14561.0, "max_depth_m": 1.47, "catchment_m2": 47733300.0}}, {"type": "Feature", "geometry": {"type": "Point", "coordinates": [77.77923648679838, 13.434978810470536]}, "properties": {"sink_id": 57, "volume_m3": 10412.0, "max_depth_m": 0.42, "catchment_m2": 6300.0}}, {"type": "Feature", "geometry": {"type": "Point", "coordinates": [77.73692583691636, 13.391859676832798]}, "properties": {"sink_id": 98, "volume_m3": 9989.0, "max_depth_m": 0.5, "catchment_m2": 57600.0}}, {"type": "Feature", "geometry": {"type": "Point", "coordinates": [77.72021717263173, 13.389703720150912]}, "properties": {"sink_id": 104, "volume_m3": 9819.0, "max_depth_m": 1.72, "catchment_m2": 900.0}}, {"type": "Feature", "geometry": {"type": "Point", "coordinates": [77.73854280442778, 13.436865272567186]}, "properties": {"sink_id": 51, "volume_m3": 8756.0, "max_depth_m": 0.41, "catchment_m2": 144900.0}}, {"type": "Feature", "geometry": {"type": "Point", "coordinates": [77.74932258783721, 13.461928268994122]}, "properties": {"sink_id": 36, "volume_m3": 8504.0, "max_depth_m": 0.35, "catchment_m2": 8100.0}}, {"type": "Feature", "geometry": {"type": "Point", "coordinates": [77.70350850834711, 13.397249568537516]}, "properties": {"sink_id": 93, "volume_m3": 7857.0, "max_depth_m": 1.23, "catchment_m2": 28800.0}}, {"type": "Feature", "geometry": {"type": "Point", "coordinates": [77.74528016905867, 13.461928268994122]}, "properties": {"sink_id": 35, "volume_m3": 5616.0, "max_depth_m": 0.52, "catchment_m2": 20700.0}}, {"type": "Feature", "geometry": {"type": "Point", "coordinates": [77.79459767815683, 13.414227727407374]}, "properties": {"sink_id": 78, "volume_m3": 5463.0, "max_depth_m": 0.21, "catchment_m2": 8100.0}}, {"type": "Feature", "geometry": {"type": "Point", "coordinates": [77.71806121594985, 13.421504081208743]}, "properties": {"sink_id": 74, "volume_m3": 4752.0, "max_depth_m": 0.44, "catchment_m2": 6300.0}}, {"type": "Feature", "geometry": {"type": "Point", "coordinates": [77.75040056617816, 13.486991265421056]}, "properties": {"sink_id": 12, "volume_m3": 4374.0, "max_depth_m": 0.32, "catchment_m2": 3600.0}}, {"type": "Feature", "geometry": {"type": "Point", "coordinates": [77.71940868887603, 13.422043070379214]}, "properties": {"sink_id": 72, "volume_m3": 4356.0, "max_depth_m": 0.44, "catchment_m2": 900.0}}]}