{"type": "FeatureCollection", "features": [{"type": "Feature", "geometry": {"type": "Point", "coordinates": [73.04017420542586, 19.008126833148044]}, "properties": {"sink_id": 35, "volume_m3": 6453710.0, "max_depth_m": 3.24, "catchment_m2": 900.0}}, {"type": "Feature", "geometry": {"type": "Point", "coordinates": [73.01160777939086, 18.916498674167855]}, "properties": {"sink_id": 441, "volume_m3": 993393.0, "max_depth_m": 0.72, "catchment_m2": 900.0}}, {"type": "Feature", "geometry": {"type": "Point", "coordinates": [72.94100019805906, 18.9641992157546]}, "properties": {"sink_id": 257, "volume_m3": 669132.0, "max_depth_m": 5.8, "catchment_m2": 1800.0}}, {"type": "Feature", "geometry": {"type": "Point", "coordinates": [72.96741066741218, 18.927278457577287]}, "properties": {"sink_id": 401, "volume_m3": 464436.0, "max_depth_m": 0.62, "catchment_m2": 14400.0}}, {"type": "Feature", "geometry": {"type": "Point", "coordinates": [72.98923972881627, 18.905988385343655]}, "properties": {"sink_id": 472, "volume_m3": 345006.0, "max_depth_m": 0.57, "catchment_m2": 14400.0}}, {"type": "Feature", "geometry": {"type": "Point", "coordinates": [73.00163647973713, 18.963121237413656]}, "properties": {"sink_id": 260, "volume_m3": 337383.0, "max_depth_m": 0.88, "catchment_m2": 38700.0}}, {"type": "Feature", "geometry": {"type": "Point", "coordinates": [72.92186608250732, 18.91218676080408]}, "properties": {"sink_id": 479, "volume_m3": 292761.0, "max_depth_m": 5.64, "catchment_m2": 3600.0}}, {"type": "Feature", "geometry": {"type": "Point", "coordinates": [72.99786355554383, 18.92916491967394]}, "properties": {"sink_id": 438, "volume_m3": 291942.0, "max_depth_m": 1.47, "catchment_m2": 900.0}}, {"type": "Feature", "geometry": {"type": "Point", "coordinates": [73.04098268918156, 19.003814919784272]}, "properties": {"sink_id": 134, "volume_m3": 268236.0, "max_depth_m": 1.1, "catchment_m2": 900.0}}, {"type": "Feature", "geometry": {"type": "Point", "coordinates": [72.95905633526986, 18.954766905271345]}, "properties": {"sink_id": 316, "volume_m3": 247491.0, "max_depth_m": 2.89, "catchment_m2": 7200.0}}, {"type": "Feature", "geometry": {"type": "Point", "coordinates": [72.94477312225236, 18.908683331196013]}, "properties": {"sink_id": 507, "volume_m3": 218007.0, "max_depth_m": 1.15, "catchment_m2": 7200.0}}, {"type": "Feature", "geometry": {"type": "Point", "coordinates": [73.00972131729421, 19.030764378307857]}, "properties": {"sink_id": 30, "volume_m3": 191187.0, "max_depth_m": 2.68, "catchment_m2": 44100.0}}, {"type": "Feature", "geometry": {"type": "Point", "coordinates": [72.966063194486, 18.90517990158795]}, "properties": {"sink_id": 520, "volume_m3": 189081.0, "max_depth_m": 1.32, "catchment_m2": 11700.0}}, {"type": "Feature", "geometry": {"type": "Point", "coordinates": [72.94396463849665, 19.028877916211208]}, "properties": {"sink_id": 34, "volume_m3": 173799.0, "max_depth_m": 0.85, "catchment_m2": 900.0}}, {"type": "Feature", "geometry": {"type": "Point", "coordinates": [73.03424532455067, 18.90949181495172]}, "properties": {"sink_id": 465, "volume_m3": 153495.0, "max_depth_m": 1.11, "catchment_m2": 272700.0}}, {"type": "Feature", "geometry": {"type": "Point", "coordinates": [72.92590850128585, 18.958539829464648]}, "properties": {"sink_id": 312, "volume_m3": 144009.0, "max_depth_m": 12.05, "catchment_m2": 900.0}}, {"type": "Feature", "geometry": {"type": "Point", "coordinates": [73.05472691302859, 18.895478096519458]}, "properties": {"sink_id": 561, "volume_m3": 142542.0, "max_depth_m": 2.65, "catchment_m2": 7200.0}}, {"type": "Feature", "geometry": {"type": "Point", "coordinates": [73.00972131729421, 19.026182970358846]}, "properties": {"sink_id": 42, "volume_m3": 141840.0, "max_depth_m": 2.68, "catchment_m2": 900.0}}, {"type": "Feature", "geometry": {"type": "Point", "coordinates": [73.04179117293727, 18.97066708580026]}, "properties": {"sink_id": 242, "volume_m3": 134091.0, "max_depth_m": 1.75, "catchment_m2": 1800.0}}, {"type": "Feature", "geometry": {"type": "Point", "coordinates": [72.946659584349, 18.894939107348986]}, "properties": {"sink_id": 579, "volume_m3": 127269.0, "max_depth_m": 1.15, "catchment_m2": 2700.0}}, {"type": "Feature", "geometry": {"type": "Point", "coordinates": [73.00379243641902, 19.04289163464347]}, "properties": {"sink_id": 4, "volume_m3": 124641.0, "max_depth_m": 0.8, "catchment_m2": 2956500.0}}, {"type": "Feature", "geometry": {"type": "Point", "coordinates": [72.9870837721344, 18.895208601934222]}, "properties": {"sink_id": 564, "volume_m3": 118926.0, "max_depth_m": 0.38, "catchment_m2": 900.0}}, {"type": "Feature", "geometry": {"type": "Point", "coordinates": [72.89410814022803, 19.001658963102386]}, "properties": {"sink_id": 121, "volume_m3": 112167.0, "max_depth_m": 0.95, "catchment_m2": 27000.0}}, {"type": "Feature", "geometry": {"type": "Point", "coordinates": [72.95636138941751, 18.945604089373326]}, "properties": {"sink_id": 383, "volume_m3": 111051.0, "max_depth_m": 2.79, "catchment_m2": 5400.0}}, {"type": "Feature", "geometry": {"type": "Point", "coordinates": [72.99678557720289, 18.912456255389316]}, "properties": {"sink_id": 473, "volume_m3": 96543.0, "max_depth_m": 0.59, "catchment_m2": 33300.0}}]}