{"type": "FeatureCollection", "features": [{"type": "Feature", "geometry": {"type": "Point", "coordinates": [72.9736090428726, 19.16793712219291]}, "properties": {"sink_id": 32, "volume_m3": 20791043.0, "max_depth_m": 3.79, "catchment_m2": 2700.0}}, {"type": "Feature", "geometry": {"type": "Point", "coordinates": [72.98573629920821, 19.083585317014087]}, "properties": {"sink_id": 147, "volume_m3": 8762111.0, "max_depth_m": 3.25, "catchment_m2": 900.0}}, {"type": "Feature", "geometry": {"type": "Point", "coordinates": [72.94423413308189, 19.068224125655643]}, "properties": {"sink_id": 345, "volume_m3": 6503085.0, "max_depth_m": 1.79, "catchment_m2": 45000.0}}, {"type": "Feature", "geometry": {"type": "Point", "coordinates": [72.99813305012906, 19.0881667249631]}, "properties": {"sink_id": 366, "volume_m3": 6332480.0, "max_depth_m": 3.47, "catchment_m2": 900.0}}, {"type": "Feature", "geometry": {"type": "Point", "coordinates": [72.95366644356514, 19.054749396393852]}, "properties": {"sink_id": 580, "volume_m3": 3708891.0, "max_depth_m": 1.94, "catchment_m2": 6300.0}}, {"type": "Feature", "geometry": {"type": "Point", "coordinates": [72.91243377202406, 19.06579867438852]}, "properties": {"sink_id": 490, "volume_m3": 1930383.0, "max_depth_m": 2.4, "catchment_m2": 1800.0}}, {"type": "Feature", "geometry": {"type": "Point", "coordinates": [72.90219297778509, 19.135328277379372]}, "properties": {"sink_id": 199, "volume_m3": 1598634.0, "max_depth_m": 2.48, "catchment_m2": 2700.0}}, {"type": "Feature", "geometry": {"type": "Point", "coordinates": [72.97657348331019, 19.178716905602347]}, "properties": {"sink_id": 15, "volume_m3": 814230.0, "max_depth_m": 2.2, "catchment_m2": 216000.0}}, {"type": "Feature", "geometry": {"type": "Point", "coordinates": [72.99274315842435, 19.085202284525504]}, "properties": {"sink_id": 416, "volume_m3": 619929.0, "max_depth_m": 3.18, "catchment_m2": 7200.0}}, {"type": "Feature", "geometry": {"type": "Point", "coordinates": [72.98007691291826, 19.067146147314702]}, "properties": {"sink_id": 526, "volume_m3": 448785.0, "max_depth_m": 3.38, "catchment_m2": 900.0}}, {"type": "Feature", "geometry": {"type": "Point", "coordinates": [72.96094279736651, 19.107300840514842]}, "properties": {"sink_id": 299, "volume_m3": 368514.0, "max_depth_m": 4.61, "catchment_m2": 900.0}}, {"type": "Feature", "geometry": {"type": "Point", "coordinates": [73.0374792595735, 19.17440499223857]}, "properties": {"sink_id": 16, "volume_m3": 333810.0, "max_depth_m": 1.27, "catchment_m2": 1800.0}}, {"type": "Feature", "geometry": {"type": "Point", "coordinates": [72.93264586591675, 19.05744434224621]}, "properties": {"sink_id": 595, "volume_m3": 302661.0, "max_depth_m": 1.31, "catchment_m2": 900.0}}, {"type": "Feature", "geometry": {"type": "Point", "coordinates": [72.94396463849665, 19.028877916211208]}, "properties": {"sink_id": 673, "volume_m3": 218601.0, "max_depth_m": 0.95, "catchment_m2": 1527300.0}}, {"type": "Feature", "geometry": {"type": "Point", "coordinates": [72.97980741833302, 19.126165461481353]}, "properties": {"sink_id": 220, "volume_m3": 176157.0, "max_depth_m": 3.14, "catchment_m2": 900.0}}, {"type": "Feature", "geometry": {"type": "Point", "coordinates": [72.98762276130486, 19.155270876686824]}, "properties": {"sink_id": 120, "volume_m3": 171927.0, "max_depth_m": 1.67, "catchment_m2": 900.0}}, {"type": "Feature", "geometry": {"type": "Point", "coordinates": [72.98843124506057, 19.174943981409044]}, "properties": {"sink_id": 27, "volume_m3": 127728.0, "max_depth_m": 0.5, "catchment_m2": 2700.0}}, {"type": "Feature", "geometry": {"type": "Point", "coordinates": [72.937496768451, 19.095982067934937]}, "properties": {"sink_id": 364, "volume_m3": 111501.0, "max_depth_m": 1.01, "catchment_m2": 900.0}}, {"type": "Feature", "geometry": {"type": "Point", "coordinates": [72.93911373596241, 19.05933080434286]}, "properties": {"sink_id": 584, "volume_m3": 80973.0, "max_depth_m": 2.4, "catchment_m2": 1800.0}}, {"type": "Feature", "geometry": {"type": "Point", "coordinates": [72.93965272513289, 19.05825282600192]}, "properties": {"sink_id": 604, "volume_m3": 69021.0, "max_depth_m": 1.61, "catchment_m2": 57600.0}}, {"type": "Feature", "geometry": {"type": "Point", "coordinates": [73.04367763503392, 19.03669325918305]}, "properties": {"sink_id": 662, "volume_m3": 67608.0, "max_depth_m": 4.0, "catchment_m2": 1554300.0}}, {"type": "Feature", "geometry": {"type": "Point", "coordinates": [73.03047240035737, 19.10083297046918]}, "properties": {"sink_id": 320, "volume_m3": 64908.0, "max_depth_m": 1.35, "catchment_m2": 900.0}}, {"type": "Feature", "geometry": {"type": "Point", "coordinates": [72.92752546879727, 19.077386941553662]}, "properties": {"sink_id": 482, "volume_m3": 62919.0, "max_depth_m": 0.78, "catchment_m2": 2700.0}}, {"type": "Feature", "geometry": {"type": "Point", "coordinates": [73.0412521837668, 19.17521347599428]}, "properties": {"sink_id": 38, "volume_m3": 60885.0, "max_depth_m": 1.91, "catchment_m2": 900.0}}, {"type": "Feature", "geometry": {"type": "Point", "coordinates": [72.99220416925387, 19.071188566093237]}, "properties": {"sink_id": 530, "volume_m3": 59436.0, "max_depth_m": 1.18, "catchment_m2": 900.0}}]}