{"type": "FeatureCollection", "features": [{"type": "Feature", "geometry": {"type": "Point", "coordinates": [78.14736609023058, 13.090564730539109]}, "properties": {"sink_id": 248, "volume_m3": 447990.0, "max_depth_m": 13.73, "catchment_m2": 900.0}}, {"type": "Feature", "geometry": {"type": "Point", "coordinates": [78.13362186638354, 13.153087474313828]}, "properties": {"sink_id": 113, "volume_m3": 367135.0, "max_depth_m": 2.58, "catchment_m2": 2700.0}}, {"type": "Feature", "geometry": {"type": "Point", "coordinates": [78.14278468228156, 13.1641367523085]}, "properties": {"sink_id": 84, "volume_m3": 140787.0, "max_depth_m": 1.86, "catchment_m2": 149400.0}}, {"type": "Feature", "geometry": {"type": "Point", "coordinates": [78.1514085090091, 13.128293972472129]}, "properties": {"sink_id": 149, "volume_m3": 126010.0, "max_depth_m": 4.27, "catchment_m2": 63900.0}}, {"type": "Feature", "geometry": {"type": "Point", "coordinates": [78.11556572917274, 13.16467574147897]}, "properties": {"sink_id": 87, "volume_m3": 109458.0, "max_depth_m": 2.04, "catchment_m2": 22329000.0}}, {"type": "Feature", "geometry": {"type": "Point", "coordinates": [78.06382276880746, 13.120748124085525]}, "properties": {"sink_id": 154, "volume_m3": 60875.0, "max_depth_m": 0.94, "catchment_m2": 3600.0}}, {"type": "Feature", "geometry": {"type": "Point", "coordinates": [78.0905027327458, 13.168448665672273]}, "properties": {"sink_id": 73, "volume_m3": 48515.0, "max_depth_m": 0.96, "catchment_m2": 336600.0}}, {"type": "Feature", "geometry": {"type": "Point", "coordinates": [78.09912655947335, 13.11401075945463]}, "properties": {"sink_id": 179, "volume_m3": 28672.0, "max_depth_m": 1.72, "catchment_m2": 2700.0}}, {"type": "Feature", "geometry": {"type": "Point", "coordinates": [78.11125381580896, 13.09568512765859]}, "properties": {"sink_id": 241, "volume_m3": 27719.0, "max_depth_m": 1.1, "catchment_m2": 7200.0}}, {"type": "Feature", "geometry": {"type": "Point", "coordinates": [78.11853016961034, 13.107003900238496]}, "properties": {"sink_id": 208, "volume_m3": 24992.0, "max_depth_m": 2.45, "catchment_m2": 44100.0}}, {"type": "Feature", "geometry": {"type": "Point", "coordinates": [78.18913775094212, 13.175994514058877]}, "properties": {"sink_id": 52, "volume_m3": 22681.0, "max_depth_m": 0.93, "catchment_m2": 900.0}}, {"type": "Feature", "geometry": {"type": "Point", "coordinates": [78.16326627075948, 13.156051914751423]}, "properties": {"sink_id": 114, "volume_m3": 21978.0, "max_depth_m": 1.11, "catchment_m2": 27900.0}}, {"type": "Feature", "geometry": {"type": "Point", "coordinates": [78.07136861719405, 13.165214730649442]}, "properties": {"sink_id": 85, "volume_m3": 21915.0, "max_depth_m": 0.72, "catchment_m2": 3600.0}}, {"type": "Feature", "geometry": {"type": "Point", "coordinates": [78.07891446558067, 13.098919062681421]}, "properties": {"sink_id": 229, "volume_m3": 20655.0, "max_depth_m": 4.92, "catchment_m2": 3600.0}}, {"type": "Feature", "geometry": {"type": "Point", "coordinates": [78.14359316603726, 13.15174000138765]}, "properties": {"sink_id": 124, "volume_m3": 17064.0, "max_depth_m": 0.5, "catchment_m2": 68400.0}}, {"type": "Feature", "geometry": {"type": "Point", "coordinates": [78.1678476787085, 13.138265272125857]}, "properties": {"sink_id": 138, "volume_m3": 16011.0, "max_depth_m": 0.91, "catchment_m2": 36900.0}}, {"type": "Feature", "geometry": {"type": "Point", "coordinates": [78.12365056672982, 13.188930254150197]}, "properties": {"sink_id": 33, "volume_m3": 15876.0, "max_depth_m": 1.97, "catchment_m2": 900.0}}, {"type": "Feature", "geometry": {"type": "Point", "coordinates": [78.1972225884992, 13.091642708880054]}, "properties": {"sink_id": 250, "volume_m3": 14282.0, "max_depth_m": 0.65, "catchment_m2": 900.0}}, {"type": "Feature", "geometry": {"type": "Point", "coordinates": [78.11691320209891, 13.164406246893734]}, "properties": {"sink_id": 91, "volume_m3": 13356.0, "max_depth_m": 1.72, "catchment_m2": 900.0}}, {"type": "Feature", "geometry": {"type": "Point", "coordinates": [78.10855886995661, 13.195937113366329]}, "properties": {"sink_id": 20, "volume_m3": 10017.0, "max_depth_m": 0.54, "catchment_m2": 6300.0}}, {"type": "Feature", "geometry": {"type": "Point", "coordinates": [78.08160941143302, 13.077898485033025]}, "properties": {"sink_id": 283, "volume_m3": 9630.0, "max_depth_m": 0.66, "catchment_m2": 1800.0}}, {"type": "Feature", "geometry": {"type": "Point", "coordinates": [78.11340977249085, 13.069274658305476]}, "properties": {"sink_id": 313, "volume_m3": 8127.0, "max_depth_m": 0.78, "catchment_m2": 900.0}}, {"type": "Feature", "geometry": {"type": "Point", "coordinates": [78.1611103140776, 13.17114361152463]}, "properties": {"sink_id": 69, "volume_m3": 6633.0, "max_depth_m": 0.49, "catchment_m2": 3600.0}}, {"type": "Feature", "geometry": {"type": "Point", "coordinates": [78.1355083284802, 13.196206607951565]}, "properties": {"sink_id": 21, "volume_m3": 6174.0, "max_depth_m": 0.99, "catchment_m2": 43200.0}}, {"type": "Feature", "geometry": {"type": "Point", "coordinates": [78.18401735382264, 13.18542682454213]}, "properties": {"sink_id": 44, "volume_m3": 5733.0, "max_depth_m": 0.28, "catchment_m2": 305100.0}}]}