{"type": "FeatureCollection", "features": [{"type": "Feature", "geometry": {"type": "Point", "coordinates": [76.99878016795536, 11.89185281541002]}, "properties": {"sink_id": 258, "volume_m3": 156873.0, "max_depth_m": 2.19, "catchment_m2": 8215200.0}}, {"type": "Feature", "geometry": {"type": "Point", "coordinates": [77.00012764088153, 11.92958205734304]}, "properties": {"sink_id": 156, "volume_m3": 99967.0, "max_depth_m": 1.0, "catchment_m2": 1800.0}}, {"type": "Feature", "geometry": {"type": "Point", "coordinates": [76.95350507763573, 11.870832237761624]}, "properties": {"sink_id": 334, "volume_m3": 92025.0, "max_depth_m": 1.99, "catchment_m2": 41400.0}}, {"type": "Feature", "geometry": {"type": "Point", "coordinates": [76.95134912095385, 11.892930793750963]}, "properties": {"sink_id": 265, "volume_m3": 90914.0, "max_depth_m": 1.27, "catchment_m2": 2700.0}}, {"type": "Feature", "geometry": {"type": "Point", "coordinates": [76.97641211738078, 11.985906425657333]}, "properties": {"sink_id": 6, "volume_m3": 87184.0, "max_depth_m": 0.82, "catchment_m2": 900.0}}, {"type": "Feature", "geometry": {"type": "Point", "coordinates": [76.99042583581304, 11.9179937901779]}, "properties": {"sink_id": 183, "volume_m3": 74843.0, "max_depth_m": 1.41, "catchment_m2": 900.0}}, {"type": "Feature", "geometry": {"type": "Point", "coordinates": [76.97829857947742, 11.957070505037098]}, "properties": {"sink_id": 71, "volume_m3": 71855.0, "max_depth_m": 0.75, "catchment_m2": 386100.0}}, {"type": "Feature", "geometry": {"type": "Point", "coordinates": [76.96590182855658, 11.86975425942068]}, "properties": {"sink_id": 335, "volume_m3": 69608.0, "max_depth_m": 2.28, "catchment_m2": 22500.0}}, {"type": "Feature", "geometry": {"type": "Point", "coordinates": [76.95889496934045, 11.903980071745634]}, "properties": {"sink_id": 231, "volume_m3": 66232.0, "max_depth_m": 3.58, "catchment_m2": 7200.0}}, {"type": "Feature", "geometry": {"type": "Point", "coordinates": [76.94730670217531, 11.882689999512001]}, "properties": {"sink_id": 286, "volume_m3": 58770.0, "max_depth_m": 1.72, "catchment_m2": 7200.0}}, {"type": "Feature", "geometry": {"type": "Point", "coordinates": [76.97722060113648, 11.897512201699973]}, "properties": {"sink_id": 252, "volume_m3": 56457.0, "max_depth_m": 1.8, "catchment_m2": 67500.0}}, {"type": "Feature", "geometry": {"type": "Point", "coordinates": [76.99392926542112, 11.896703717944266]}, "properties": {"sink_id": 248, "volume_m3": 51188.0, "max_depth_m": 1.37, "catchment_m2": 900.0}}, {"type": "Feature", "geometry": {"type": "Point", "coordinates": [76.91092493316846, 11.974048663906956]}, "properties": {"sink_id": 27, "volume_m3": 46424.0, "max_depth_m": 1.66, "catchment_m2": 7200.0}}, {"type": "Feature", "geometry": {"type": "Point", "coordinates": [76.95296608846526, 11.898320685455682]}, "properties": {"sink_id": 247, "volume_m3": 45729.0, "max_depth_m": 1.51, "catchment_m2": 1800.0}}, {"type": "Feature", "geometry": {"type": "Point", "coordinates": [76.94730670217531, 11.856010035573652]}, "properties": {"sink_id": 419, "volume_m3": 44416.0, "max_depth_m": 2.51, "catchment_m2": 1800.0}}, {"type": "Feature", "geometry": {"type": "Point", "coordinates": [76.92898107037927, 11.960573934645163]}, "properties": {"sink_id": 57, "volume_m3": 41373.0, "max_depth_m": 5.62, "catchment_m2": 163800.0}}, {"type": "Feature", "geometry": {"type": "Point", "coordinates": [76.9074215035604, 11.941439819093418]}, "properties": {"sink_id": 119, "volume_m3": 38196.0, "max_depth_m": 1.62, "catchment_m2": 593100.0}}, {"type": "Feature", "geometry": {"type": "Point", "coordinates": [76.99931915712583, 11.907214006768465]}, "properties": {"sink_id": 216, "volume_m3": 36632.0, "max_depth_m": 1.15, "catchment_m2": 9900.0}}, {"type": "Feature", "geometry": {"type": "Point", "coordinates": [76.92978955413497, 11.85924397059648]}, "properties": {"sink_id": 402, "volume_m3": 34228.0, "max_depth_m": 2.18, "catchment_m2": 8100.0}}, {"type": "Feature", "geometry": {"type": "Point", "coordinates": [76.88370598005964, 11.937127905729644]}, "properties": {"sink_id": 134, "volume_m3": 31428.0, "max_depth_m": 1.94, "catchment_m2": 1130400.0}}, {"type": "Feature", "geometry": {"type": "Point", "coordinates": [76.89664172015097, 11.953567075429032]}, "properties": {"sink_id": 84, "volume_m3": 24534.0, "max_depth_m": 1.37, "catchment_m2": 13500.0}}, {"type": "Feature", "geometry": {"type": "Point", "coordinates": [76.93194551081686, 11.865172851471671]}, "properties": {"sink_id": 359, "volume_m3": 24470.0, "max_depth_m": 1.25, "catchment_m2": 7200.0}}, {"type": "Feature", "geometry": {"type": "Point", "coordinates": [76.94730670217531, 11.94251779743436]}, "properties": {"sink_id": 115, "volume_m3": 24139.0, "max_depth_m": 0.61, "catchment_m2": 47925000.0}}, {"type": "Feature", "geometry": {"type": "Point", "coordinates": [76.94461175632294, 11.85924397059648]}, "properties": {"sink_id": 408, "volume_m3": 23679.0, "max_depth_m": 3.54, "catchment_m2": 27900.0}}, {"type": "Feature", "geometry": {"type": "Point", "coordinates": [76.99446825459158, 11.905058050086577]}, "properties": {"sink_id": 227, "volume_m3": 22355.0, "max_depth_m": 0.36, "catchment_m2": 18000.0}}]}