{"type": "FeatureCollection", "features": [{"type": "Feature", "geometry": {"type": "Point", "coordinates": [72.9841193316968, 19.196234053642673]}, "properties": {"sink_id": 136, "volume_m3": 31844195.0, "max_depth_m": 4.24, "catchment_m2": 45900.0}}, {"type": "Feature", "geometry": {"type": "Point", "coordinates": [73.00460092017472, 19.24312611147371]}, "properties": {"sink_id": 42, "volume_m3": 6989795.0, "max_depth_m": 1.46, "catchment_m2": 900.0}}, {"type": "Feature", "geometry": {"type": "Point", "coordinates": [73.01834514402175, 19.20809181539305]}, "properties": {"sink_id": 364, "volume_m3": 4762909.0, "max_depth_m": 3.25, "catchment_m2": 900.0}}, {"type": "Feature", "geometry": {"type": "Point", "coordinates": [73.00136698515189, 19.28678423428192]}, "properties": {"sink_id": 61, "volume_m3": 4454316.0, "max_depth_m": 1.91, "catchment_m2": 900.0}}, {"type": "Feature", "geometry": {"type": "Point", "coordinates": [72.92483052294492, 19.2919046314014]}, "properties": {"sink_id": 116, "volume_m3": 2746476.0, "max_depth_m": 11.58, "catchment_m2": 10800.0}}, {"type": "Feature", "geometry": {"type": "Point", "coordinates": [73.02130958445935, 19.216176652950125]}, "properties": {"sink_id": 312, "volume_m3": 2240712.0, "max_depth_m": 0.95, "catchment_m2": 900.0}}, {"type": "Feature", "geometry": {"type": "Point", "coordinates": [72.94315615474095, 19.308613295686026]}, "properties": {"sink_id": 32, "volume_m3": 1947060.0, "max_depth_m": 2.63, "catchment_m2": 12600.0}}, {"type": "Feature", "geometry": {"type": "Point", "coordinates": [72.92186608250732, 19.284089288429563]}, "properties": {"sink_id": 169, "volume_m3": 1536678.0, "max_depth_m": 9.6, "catchment_m2": 8100.0}}, {"type": "Feature", "geometry": {"type": "Point", "coordinates": [72.96821915116789, 19.31804560616928]}, "properties": {"sink_id": 12, "volume_m3": 1047996.0, "max_depth_m": 0.73, "catchment_m2": 2700.0}}, {"type": "Feature", "geometry": {"type": "Point", "coordinates": [73.02481301406742, 19.193000118619842]}, "properties": {"sink_id": 469, "volume_m3": 847800.0, "max_depth_m": 6.33, "catchment_m2": 3600.0}}, {"type": "Feature", "geometry": {"type": "Point", "coordinates": [72.97657348331019, 19.178716905602343]}, "properties": {"sink_id": 540, "volume_m3": 725526.0, "max_depth_m": 2.07, "catchment_m2": 1800.0}}, {"type": "Feature", "geometry": {"type": "Point", "coordinates": [72.90515741822269, 19.287053728867157]}, "properties": {"sink_id": 152, "volume_m3": 670068.0, "max_depth_m": 2.5, "catchment_m2": 88200.0}}, {"type": "Feature", "geometry": {"type": "Point", "coordinates": [73.02777745450501, 19.234232790160927]}, "properties": {"sink_id": 293, "volume_m3": 604890.0, "max_depth_m": 0.59, "catchment_m2": 76500.0}}, {"type": "Feature", "geometry": {"type": "Point", "coordinates": [73.0374792595735, 19.174404992238568]}, "properties": {"sink_id": 538, "volume_m3": 497502.0, "max_depth_m": 1.4, "catchment_m2": 1800.0}}, {"type": "Feature", "geometry": {"type": "Point", "coordinates": [72.93480182259863, 19.29001816930475]}, "properties": {"sink_id": 155, "volume_m3": 439506.0, "max_depth_m": 10.97, "catchment_m2": 1800.0}}, {"type": "Feature", "geometry": {"type": "Point", "coordinates": [73.03936572167015, 19.19650354822791]}, "properties": {"sink_id": 461, "volume_m3": 305055.0, "max_depth_m": 2.86, "catchment_m2": 55800.0}}, {"type": "Feature", "geometry": {"type": "Point", "coordinates": [72.98627528837868, 19.179525389358048]}, "properties": {"sink_id": 532, "volume_m3": 298782.0, "max_depth_m": 0.71, "catchment_m2": 900.0}}, {"type": "Feature", "geometry": {"type": "Point", "coordinates": [72.95824785151416, 19.316428638657865]}, "properties": {"sink_id": 16, "volume_m3": 279837.0, "max_depth_m": 0.78, "catchment_m2": 21600.0}}, {"type": "Feature", "geometry": {"type": "Point", "coordinates": [72.91836265289925, 19.2919046314014]}, "properties": {"sink_id": 147, "volume_m3": 214911.0, "max_depth_m": 5.35, "catchment_m2": 900.0}}, {"type": "Feature", "geometry": {"type": "Point", "coordinates": [73.02535200323788, 19.1814118514547]}, "properties": {"sink_id": 533, "volume_m3": 183402.0, "max_depth_m": 1.55, "catchment_m2": 2700.0}}, {"type": "Feature", "geometry": {"type": "Point", "coordinates": [72.90488792363746, 19.280585858821496]}, "properties": {"sink_id": 192, "volume_m3": 163647.0, "max_depth_m": 1.64, "catchment_m2": 900.0}}, {"type": "Feature", "geometry": {"type": "Point", "coordinates": [72.97953792374778, 19.29918098520277]}, "properties": {"sink_id": 109, "volume_m3": 162315.0, "max_depth_m": 1.4, "catchment_m2": 1800.0}}, {"type": "Feature", "geometry": {"type": "Point", "coordinates": [72.93264586591675, 19.28678423428192]}, "properties": {"sink_id": 178, "volume_m3": 160947.0, "max_depth_m": 2.75, "catchment_m2": 900.0}}, {"type": "Feature", "geometry": {"type": "Point", "coordinates": [73.03451481913591, 19.200545967006445]}, "properties": {"sink_id": 398, "volume_m3": 122364.0, "max_depth_m": 1.45, "catchment_m2": 1800.0}}, {"type": "Feature", "geometry": {"type": "Point", "coordinates": [73.01996211153316, 19.30942177944173]}, "properties": {"sink_id": 43, "volume_m3": 114057.0, "max_depth_m": 0.6, "catchment_m2": 900.0}}]}