{"type": "FeatureCollection", "features": [{"type": "Feature", "geometry": {"type": "Point", "coordinates": [80.24160851209841, 13.026425019252976]}, "properties": {"sink_id": 362, "volume_m3": 1334754.0, "max_depth_m": 3.65, "catchment_m2": 124200.0}}, {"type": "Feature", "geometry": {"type": "Point", "coordinates": [80.21007764562582, 13.078706968788731]}, "properties": {"sink_id": 76, "volume_m3": 1327518.0, "max_depth_m": 5.11, "catchment_m2": 3600.0}}, {"type": "Feature", "geometry": {"type": "Point", "coordinates": [80.27044443271865, 13.07951545254444]}, "properties": {"sink_id": 78, "volume_m3": 1141542.0, "max_depth_m": 2.81, "catchment_m2": 66696300.0}}, {"type": "Feature", "geometry": {"type": "Point", "coordinates": [80.22786428825138, 13.019148665451608]}, "properties": {"sink_id": 335, "volume_m3": 1043460.0, "max_depth_m": 3.15, "catchment_m2": 37090800.0}}, {"type": "Feature", "geometry": {"type": "Point", "coordinates": [80.16049064194242, 12.99947556072939]}, "properties": {"sink_id": 527, "volume_m3": 696375.0, "max_depth_m": 3.09, "catchment_m2": 37800.0}}, {"type": "Feature", "geometry": {"type": "Point", "coordinates": [80.16884497408473, 12.97414306971722]}, "properties": {"sink_id": 608, "volume_m3": 637434.0, "max_depth_m": 16.2, "catchment_m2": 6300.0}}, {"type": "Feature", "geometry": {"type": "Point", "coordinates": [80.17558233871563, 12.971717618450096]}, "properties": {"sink_id": 612, "volume_m3": 530766.0, "max_depth_m": 9.41, "catchment_m2": 623700.0}}, {"type": "Feature", "geometry": {"type": "Point", "coordinates": [80.20226230265398, 13.069544152890712]}, "properties": {"sink_id": 140, "volume_m3": 470601.0, "max_depth_m": 0.74, "catchment_m2": 16200.0}}, {"type": "Feature", "geometry": {"type": "Point", "coordinates": [80.22678630991044, 12.967944694256795]}, "properties": {"sink_id": 616, "volume_m3": 402480.0, "max_depth_m": 0.63, "catchment_m2": 900.0}}, {"type": "Feature", "geometry": {"type": "Point", "coordinates": [80.263976562673, 13.066849207038354]}, "properties": {"sink_id": 152, "volume_m3": 374814.0, "max_depth_m": 3.0, "catchment_m2": 3600.0}}, {"type": "Feature", "geometry": {"type": "Point", "coordinates": [80.16722800657331, 12.969022672597738]}, "properties": {"sink_id": 624, "volume_m3": 309717.0, "max_depth_m": 7.8, "catchment_m2": 1800.0}}, {"type": "Feature", "geometry": {"type": "Point", "coordinates": [80.27071392730389, 13.015914730428777]}, "properties": {"sink_id": 419, "volume_m3": 282474.0, "max_depth_m": 3.41, "catchment_m2": 10800.0}}, {"type": "Feature", "geometry": {"type": "Point", "coordinates": [80.20792168894393, 12.957434405432597]}, "properties": {"sink_id": 647, "volume_m3": 263979.0, "max_depth_m": 0.36, "catchment_m2": 1800.0}}, {"type": "Feature", "geometry": {"type": "Point", "coordinates": [80.17989425207941, 12.970370145523917]}, "properties": {"sink_id": 618, "volume_m3": 166689.0, "max_depth_m": 6.22, "catchment_m2": 2700.0}}, {"type": "Feature", "geometry": {"type": "Point", "coordinates": [80.18797908963647, 13.021035127548258]}, "properties": {"sink_id": 408, "volume_m3": 158112.0, "max_depth_m": 1.72, "catchment_m2": 18000.0}}, {"type": "Feature", "geometry": {"type": "Point", "coordinates": [80.24807638214408, 13.020226643792551]}, "properties": {"sink_id": 428, "volume_m3": 153423.0, "max_depth_m": 3.65, "catchment_m2": 2700.0}}, {"type": "Feature", "geometry": {"type": "Point", "coordinates": [80.26667150852535, 13.078706968788731]}, "properties": {"sink_id": 98, "volume_m3": 131085.0, "max_depth_m": 2.31, "catchment_m2": 66482100.0}}, {"type": "Feature", "geometry": {"type": "Point", "coordinates": [80.2677494868663, 13.024538557156324]}, "properties": {"sink_id": 387, "volume_m3": 121401.0, "max_depth_m": 2.87, "catchment_m2": 1800.0}}, {"type": "Feature", "geometry": {"type": "Point", "coordinates": [80.26640201394011, 13.022652095059673]}, "properties": {"sink_id": 406, "volume_m3": 106704.0, "max_depth_m": 2.87, "catchment_m2": 1800.0}}, {"type": "Feature", "geometry": {"type": "Point", "coordinates": [80.187440100466, 13.056877907384628]}, "properties": {"sink_id": 233, "volume_m3": 98046.0, "max_depth_m": 0.64, "catchment_m2": 3600.0}}, {"type": "Feature", "geometry": {"type": "Point", "coordinates": [80.2467289092179, 13.088408773857223]}, "properties": {"sink_id": 37, "volume_m3": 93393.0, "max_depth_m": 0.74, "catchment_m2": 105300.0}}, {"type": "Feature", "geometry": {"type": "Point", "coordinates": [80.19552493802308, 13.046637113145664]}, "properties": {"sink_id": 263, "volume_m3": 88632.0, "max_depth_m": 0.61, "catchment_m2": 1227600.0}}, {"type": "Feature", "geometry": {"type": "Point", "coordinates": [80.17342638203374, 13.092990181806233]}, "properties": {"sink_id": 28, "volume_m3": 82755.0, "max_depth_m": 0.38, "catchment_m2": 229500.0}}, {"type": "Feature", "geometry": {"type": "Point", "coordinates": [80.23729659873464, 13.02157411671873]}, "properties": {"sink_id": 418, "volume_m3": 76545.0, "max_depth_m": 3.15, "catchment_m2": 2700.0}}, {"type": "Feature", "geometry": {"type": "Point", "coordinates": [80.21169461313723, 13.094607149317648]}, "properties": {"sink_id": 23, "volume_m3": 73881.0, "max_depth_m": 0.33, "catchment_m2": 3600.0}}]}