{"type": "FeatureCollection", "features": [{"type": "Feature", "geometry": {"type": "Point", "coordinates": [72.82915994518618, 19.164433692584844]}, "properties": {"sink_id": 76, "volume_m3": 3209346.0, "max_depth_m": 3.26, "catchment_m2": 900.0}}, {"type": "Feature", "geometry": {"type": "Point", "coordinates": [72.87200958423868, 19.076039468627485]}, "properties": {"sink_id": 375, "volume_m3": 2937699.0, "max_depth_m": 2.57, "catchment_m2": 3600.0}}, {"type": "Feature", "geometry": {"type": "Point", "coordinates": [72.7970900895431, 19.1595827900506]}, "properties": {"sink_id": 30, "volume_m3": 1951443.0, "max_depth_m": 2.64, "catchment_m2": 7200.0}}, {"type": "Feature", "geometry": {"type": "Point", "coordinates": [72.90219297778509, 19.135328277379372]}, "properties": {"sink_id": 235, "volume_m3": 1598634.0, "max_depth_m": 2.48, "catchment_m2": 2700.0}}, {"type": "Feature", "geometry": {"type": "Point", "coordinates": [72.83616680440231, 19.117541634753806]}, "properties": {"sink_id": 275, "volume_m3": 1243998.0, "max_depth_m": 1.96, "catchment_m2": 325800.0}}, {"type": "Feature", "geometry": {"type": "Point", "coordinates": [72.84155669610702, 19.050706977615313]}, "properties": {"sink_id": 447, "volume_m3": 997092.0, "max_depth_m": 3.07, "catchment_m2": 18900.0}}, {"type": "Feature", "geometry": {"type": "Point", "coordinates": [72.80894785129348, 19.146647049959277]}, "properties": {"sink_id": 129, "volume_m3": 696375.0, "max_depth_m": 3.93, "catchment_m2": 2962800.0}}, {"type": "Feature", "geometry": {"type": "Point", "coordinates": [72.84856355532315, 19.07361401736036]}, "properties": {"sink_id": 411, "volume_m3": 405045.0, "max_depth_m": 3.07, "catchment_m2": 2700.0}}, {"type": "Feature", "geometry": {"type": "Point", "coordinates": [72.82915994518618, 19.103527916321543]}, "properties": {"sink_id": 344, "volume_m3": 402417.0, "max_depth_m": 1.1, "catchment_m2": 3600.0}}, {"type": "Feature", "geometry": {"type": "Point", "coordinates": [72.88413684057429, 19.068763114826115]}, "properties": {"sink_id": 416, "volume_m3": 140841.0, "max_depth_m": 0.34, "catchment_m2": 118800.0}}, {"type": "Feature", "geometry": {"type": "Point", "coordinates": [72.8127207754868, 19.16200824131772]}, "properties": {"sink_id": 86, "volume_m3": 119682.0, "max_depth_m": 1.59, "catchment_m2": 900.0}}, {"type": "Feature", "geometry": {"type": "Point", "coordinates": [72.79574261661693, 19.141526652839797]}, "properties": {"sink_id": 184, "volume_m3": 109494.0, "max_depth_m": 3.85, "catchment_m2": 900.0}}, {"type": "Feature", "geometry": {"type": "Point", "coordinates": [72.82808196684523, 19.140179179913616]}, "properties": {"sink_id": 179, "volume_m3": 89046.0, "max_depth_m": 1.47, "catchment_m2": 17100.0}}, {"type": "Feature", "geometry": {"type": "Point", "coordinates": [72.83185489103853, 19.133441815282723]}, "properties": {"sink_id": 232, "volume_m3": 77670.0, "max_depth_m": 0.67, "catchment_m2": 29700.0}}, {"type": "Feature", "geometry": {"type": "Point", "coordinates": [72.83751427732848, 19.171710046386213]}, "properties": {"sink_id": 38, "volume_m3": 69795.0, "max_depth_m": 0.52, "catchment_m2": 4500.0}}, {"type": "Feature", "geometry": {"type": "Point", "coordinates": [72.82915994518618, 19.177908421846638]}, "properties": {"sink_id": 21, "volume_m3": 59400.0, "max_depth_m": 0.5, "catchment_m2": 4500.0}}, {"type": "Feature", "geometry": {"type": "Point", "coordinates": [72.87389604633533, 19.048820515518663]}, "properties": {"sink_id": 520, "volume_m3": 58617.0, "max_depth_m": 0.47, "catchment_m2": 1800.0}}, {"type": "Feature", "geometry": {"type": "Point", "coordinates": [72.8240395480667, 19.137753728646494]}, "properties": {"sink_id": 210, "volume_m3": 55314.0, "max_depth_m": 0.67, "catchment_m2": 31500.0}}, {"type": "Feature", "geometry": {"type": "Point", "coordinates": [72.88225037847764, 19.030494883722625]}, "properties": {"sink_id": 583, "volume_m3": 54459.0, "max_depth_m": 0.86, "catchment_m2": 1800.0}}, {"type": "Feature", "geometry": {"type": "Point", "coordinates": [72.799246046225, 19.155809865857297]}, "properties": {"sink_id": 106, "volume_m3": 52272.0, "max_depth_m": 2.64, "catchment_m2": 36000.0}}, {"type": "Feature", "geometry": {"type": "Point", "coordinates": [72.8173021834358, 19.1452995770331]}, "properties": {"sink_id": 171, "volume_m3": 51381.0, "max_depth_m": 2.93, "catchment_m2": 900.0}}, {"type": "Feature", "geometry": {"type": "Point", "coordinates": [72.91243377202406, 19.06579867438852]}, "properties": {"sink_id": 428, "volume_m3": 51021.0, "max_depth_m": 0.66, "catchment_m2": 900.0}}, {"type": "Feature", "geometry": {"type": "Point", "coordinates": [72.83751427732848, 19.1099957863672]}, "properties": {"sink_id": 332, "volume_m3": 42678.0, "max_depth_m": 0.63, "catchment_m2": 164700.0}}, {"type": "Feature", "geometry": {"type": "Point", "coordinates": [72.87847745428434, 19.093017627497343]}, "properties": {"sink_id": 356, "volume_m3": 40203.0, "max_depth_m": 0.33, "catchment_m2": 30224700.0}}, {"type": "Feature", "geometry": {"type": "Point", "coordinates": [72.81703268885056, 19.153923403760647]}, "properties": {"sink_id": 110, "volume_m3": 38151.0, "max_depth_m": 1.09, "catchment_m2": 2700.0}}]}