{"type": "FeatureCollection", "features": [{"type": "Feature", "geometry": {"type": "Point", "coordinates": [76.3641204197249, 14.277149389332587]}, "properties": {"sink_id": 14, "volume_m3": 51740.0, "max_depth_m": 3.26, "catchment_m2": 900.0}}, {"type": "Feature", "geometry": {"type": "Point", "coordinates": [76.38002060025381, 14.23726419071768]}, "properties": {"sink_id": 80, "volume_m3": 34344.0, "max_depth_m": 1.06, "catchment_m2": 9900.0}}, {"type": "Feature", "geometry": {"type": "Point", "coordinates": [76.37543919230481, 14.239150652814331]}, "properties": {"sink_id": 74, "volume_m3": 24571.0, "max_depth_m": 0.39, "catchment_m2": 3600.0}}, {"type": "Feature", "geometry": {"type": "Point", "coordinates": [76.47003179172259, 14.171777006505367]}, "properties": {"sink_id": 148, "volume_m3": 19755.0, "max_depth_m": 2.81, "catchment_m2": 29700.0}}, {"type": "Feature", "geometry": {"type": "Point", "coordinates": [76.35064569046311, 14.25612881168419]}, "properties": {"sink_id": 56, "volume_m3": 12429.0, "max_depth_m": 1.43, "catchment_m2": 2417400.0}}, {"type": "Feature", "geometry": {"type": "Point", "coordinates": [76.37166626811151, 14.219477548092113]}, "properties": {"sink_id": 98, "volume_m3": 12258.0, "max_depth_m": 1.5, "catchment_m2": 425700.0}}, {"type": "Feature", "geometry": {"type": "Point", "coordinates": [76.42502619598821, 14.257206790025133]}, "properties": {"sink_id": 54, "volume_m3": 12096.0, "max_depth_m": 0.32, "catchment_m2": 9000.0}}, {"type": "Feature", "geometry": {"type": "Point", "coordinates": [76.39996319956127, 14.203038378392726]}, "properties": {"sink_id": 117, "volume_m3": 10998.0, "max_depth_m": 0.94, "catchment_m2": 900.0}}, {"type": "Feature", "geometry": {"type": "Point", "coordinates": [76.34067439080938, 14.265022132996974]}, "properties": {"sink_id": 36, "volume_m3": 10332.0, "max_depth_m": 1.54, "catchment_m2": 900.0}}, {"type": "Feature", "geometry": {"type": "Point", "coordinates": [76.45413161119367, 14.274723938065463]}, "properties": {"sink_id": 19, "volume_m3": 9504.0, "max_depth_m": 0.99, "catchment_m2": 109800.0}}, {"type": "Feature", "geometry": {"type": "Point", "coordinates": [76.39619027536797, 14.292241086105795]}, "properties": {"sink_id": 3, "volume_m3": 7659.0, "max_depth_m": 0.92, "catchment_m2": 489600.0}}, {"type": "Feature", "geometry": {"type": "Point", "coordinates": [76.39969370497603, 14.208158775512207]}, "properties": {"sink_id": 109, "volume_m3": 7614.0, "max_depth_m": 1.19, "catchment_m2": 900.0}}, {"type": "Feature", "geometry": {"type": "Point", "coordinates": [76.40670056419216, 14.25612881168419]}, "properties": {"sink_id": 55, "volume_m3": 3798.0, "max_depth_m": 0.45, "catchment_m2": 4500.0}}, {"type": "Feature", "geometry": {"type": "Point", "coordinates": [76.3994242103908, 14.273915454309757]}, "properties": {"sink_id": 21, "volume_m3": 2781.0, "max_depth_m": 0.47, "catchment_m2": 1337400.0}}]}