{"type": "FeatureCollection", "features": [{"type": "Feature", "geometry": {"type": "Point", "coordinates": [77.5065079665397, 13.28837375610223]}, "properties": {"sink_id": 105, "volume_m3": 540640.0, "max_depth_m": 1.2, "catchment_m2": 76500.0}}, {"type": "Feature", "geometry": {"type": "Point", "coordinates": [77.52483359833573, 13.25118350333968]}, "properties": {"sink_id": 178, "volume_m3": 156008.0, "max_depth_m": 0.89, "catchment_m2": 2700.0}}, {"type": "Feature", "geometry": {"type": "Point", "coordinates": [77.51459280409678, 13.30912483916539]}, "properties": {"sink_id": 78, "volume_m3": 109732.0, "max_depth_m": 1.69, "catchment_m2": 17100.0}}, {"type": "Feature", "geometry": {"type": "Point", "coordinates": [77.56687475363253, 13.323138557597655]}, "properties": {"sink_id": 57, "volume_m3": 64260.0, "max_depth_m": 2.53, "catchment_m2": 35100.0}}, {"type": "Feature", "geometry": {"type": "Point", "coordinates": [77.54639316515461, 13.286217799420342]}, "properties": {"sink_id": 116, "volume_m3": 58454.0, "max_depth_m": 0.81, "catchment_m2": 43752600.0}}, {"type": "Feature", "geometry": {"type": "Point", "coordinates": [77.5485491218365, 13.292685669466003]}, "properties": {"sink_id": 111, "volume_m3": 50301.0, "max_depth_m": 0.69, "catchment_m2": 17100.0}}, {"type": "Feature", "geometry": {"type": "Point", "coordinates": [77.55097457310362, 13.32206057925671]}, "properties": {"sink_id": 61, "volume_m3": 46125.0, "max_depth_m": 7.98, "catchment_m2": 12600.0}}, {"type": "Feature", "geometry": {"type": "Point", "coordinates": [77.51728774994913, 13.264388738016237]}, "properties": {"sink_id": 168, "volume_m3": 36308.0, "max_depth_m": 0.57, "catchment_m2": 15300.0}}, {"type": "Feature", "geometry": {"type": "Point", "coordinates": [77.5922072446447, 13.337691265200391]}, "properties": {"sink_id": 40, "volume_m3": 32471.0, "max_depth_m": 0.73, "catchment_m2": 7303500.0}}, {"type": "Feature", "geometry": {"type": "Point", "coordinates": [77.57145616158154, 13.241212203685954]}, "properties": {"sink_id": 201, "volume_m3": 25120.0, "max_depth_m": 0.6, "catchment_m2": 23422500.0}}, {"type": "Feature", "geometry": {"type": "Point", "coordinates": [77.54504569222843, 13.22719848525369]}, "properties": {"sink_id": 223, "volume_m3": 21394.0, "max_depth_m": 0.68, "catchment_m2": 18000.0}}, {"type": "Feature", "geometry": {"type": "Point", "coordinates": [77.50677746112494, 13.30454343121638]}, "properties": {"sink_id": 94, "volume_m3": 19468.0, "max_depth_m": 0.41, "catchment_m2": 2700.0}}, {"type": "Feature", "geometry": {"type": "Point", "coordinates": [77.55393901354121, 13.359520326604494]}, "properties": {"sink_id": 10, "volume_m3": 18260.0, "max_depth_m": 0.87, "catchment_m2": 900.0}}, {"type": "Feature", "geometry": {"type": "Point", "coordinates": [77.55555598105262, 13.309394333750626]}, "properties": {"sink_id": 81, "volume_m3": 17974.0, "max_depth_m": 0.53, "catchment_m2": 36150300.0}}, {"type": "Feature", "geometry": {"type": "Point", "coordinates": [77.53642186550088, 13.322330073841947]}, "properties": {"sink_id": 59, "volume_m3": 14903.0, "max_depth_m": 0.67, "catchment_m2": 7200.0}}, {"type": "Feature", "geometry": {"type": "Point", "coordinates": [77.60244803888367, 13.316670687551994]}, "properties": {"sink_id": 67, "volume_m3": 14211.0, "max_depth_m": 0.43, "catchment_m2": 1800.0}}, {"type": "Feature", "geometry": {"type": "Point", "coordinates": [77.54396771388748, 13.34739307026888]}, "properties": {"sink_id": 29, "volume_m3": 13338.0, "max_depth_m": 0.33, "catchment_m2": 11010600.0}}, {"type": "Feature", "geometry": {"type": "Point", "coordinates": [77.5380388330123, 13.270856608061898]}, "properties": {"sink_id": 160, "volume_m3": 12861.0, "max_depth_m": 1.98, "catchment_m2": 1141200.0}}, {"type": "Feature", "geometry": {"type": "Point", "coordinates": [77.48602637806178, 13.285948304835106]}, "properties": {"sink_id": 120, "volume_m3": 11529.0, "max_depth_m": 0.61, "catchment_m2": 10800.0}}, {"type": "Feature", "geometry": {"type": "Point", "coordinates": [77.59274623381518, 13.315053720040579]}, "properties": {"sink_id": 73, "volume_m3": 10089.0, "max_depth_m": 0.59, "catchment_m2": 37800.0}}, {"type": "Feature", "geometry": {"type": "Point", "coordinates": [77.5800799883091, 13.290529712784116]}, "properties": {"sink_id": 113, "volume_m3": 8847.0, "max_depth_m": 0.77, "catchment_m2": 900.0}}, {"type": "Feature", "geometry": {"type": "Point", "coordinates": [77.58061897747956, 13.341733683978928]}, "properties": {"sink_id": 36, "volume_m3": 8730.0, "max_depth_m": 0.83, "catchment_m2": 900.0}}, {"type": "Feature", "geometry": {"type": "Point", "coordinates": [77.51674876077867, 13.279480434789445]}, "properties": {"sink_id": 143, "volume_m3": 7713.0, "max_depth_m": 0.71, "catchment_m2": 20700.0}}, {"type": "Feature", "geometry": {"type": "Point", "coordinates": [77.52618107126192, 13.290529712784116]}, "properties": {"sink_id": 114, "volume_m3": 7623.0, "max_depth_m": 0.9, "catchment_m2": 682200.0}}, {"type": "Feature", "geometry": {"type": "Point", "coordinates": [77.5493576055922, 13.306699387898266]}, "properties": {"sink_id": 90, "volume_m3": 7389.0, "max_depth_m": 0.75, "catchment_m2": 38159100.0}}]}