{"type": "FeatureCollection", "features": [{"type": "Feature", "geometry": {"type": "Point", "coordinates": [72.81487673216867, 19.25121094903079]}, "properties": {"sink_id": 219, "volume_m3": 13760353.0, "max_depth_m": 3.67, "catchment_m2": 900.0}}, {"type": "Feature", "geometry": {"type": "Point", "coordinates": [72.83239388020901, 19.227225930944797]}, "properties": {"sink_id": 362, "volume_m3": 4433220.0, "max_depth_m": 3.88, "catchment_m2": 3600.0}}, {"type": "Feature", "geometry": {"type": "Point", "coordinates": [72.83967023401037, 19.31211672529409]}, "properties": {"sink_id": 22, "volume_m3": 3542256.0, "max_depth_m": 0.98, "catchment_m2": 42300.0}}, {"type": "Feature", "geometry": {"type": "Point", "coordinates": [72.84559911488556, 19.28031636423626]}, "properties": {"sink_id": 72, "volume_m3": 1991223.0, "max_depth_m": 1.6, "catchment_m2": 73800.0}}, {"type": "Feature", "geometry": {"type": "Point", "coordinates": [72.80625290544113, 19.21078676124541]}, "properties": {"sink_id": 489, "volume_m3": 1636641.0, "max_depth_m": 1.21, "catchment_m2": 900.0}}, {"type": "Feature", "geometry": {"type": "Point", "coordinates": [72.88440633515953, 19.29998946895848]}, "properties": {"sink_id": 37, "volume_m3": 1620342.0, "max_depth_m": 1.35, "catchment_m2": 900.0}}, {"type": "Feature", "geometry": {"type": "Point", "coordinates": [72.79035272491221, 19.289209685549043]}, "properties": {"sink_id": 71, "volume_m3": 1016289.0, "max_depth_m": 2.07, "catchment_m2": 8100.0}}, {"type": "Feature", "geometry": {"type": "Point", "coordinates": [72.82915994518618, 19.177908421846634]}, "properties": {"sink_id": 576, "volume_m3": 969660.0, "max_depth_m": 3.26, "catchment_m2": 4500.0}}, {"type": "Feature", "geometry": {"type": "Point", "coordinates": [72.82350055889623, 19.16766762760767]}, "properties": {"sink_id": 624, "volume_m3": 594450.0, "max_depth_m": 3.37, "catchment_m2": 900.0}}, {"type": "Feature", "geometry": {"type": "Point", "coordinates": [72.8286209560157, 19.193000118619842]}, "properties": {"sink_id": 535, "volume_m3": 569826.0, "max_depth_m": 2.26, "catchment_m2": 1800.0}}, {"type": "Feature", "geometry": {"type": "Point", "coordinates": [72.83481933147613, 19.2595652811731]}, "properties": {"sink_id": 140, "volume_m3": 498303.0, "max_depth_m": 3.16, "catchment_m2": 756900.0}}, {"type": "Feature", "geometry": {"type": "Point", "coordinates": [72.86823666004537, 19.259295786587863]}, "properties": {"sink_id": 192, "volume_m3": 422172.0, "max_depth_m": 1.45, "catchment_m2": 1143000.0}}, {"type": "Feature", "geometry": {"type": "Point", "coordinates": [72.8008630137364, 19.264146689122107]}, "properties": {"sink_id": 169, "volume_m3": 411075.0, "max_depth_m": 2.96, "catchment_m2": 900.0}}, {"type": "Feature", "geometry": {"type": "Point", "coordinates": [72.81972763470291, 19.26926708624159]}, "properties": {"sink_id": 143, "volume_m3": 323100.0, "max_depth_m": 1.67, "catchment_m2": 12600.0}}, {"type": "Feature", "geometry": {"type": "Point", "coordinates": [72.83805326649896, 19.254983873224088]}, "properties": {"sink_id": 329, "volume_m3": 275868.0, "max_depth_m": 3.16, "catchment_m2": 68400.0}}, {"type": "Feature", "geometry": {"type": "Point", "coordinates": [72.8173021834358, 19.223453006751495]}, "properties": {"sink_id": 438, "volume_m3": 247446.0, "max_depth_m": 2.34, "catchment_m2": 3600.0}}, {"type": "Feature", "geometry": {"type": "Point", "coordinates": [72.84694658781174, 19.315620154902156]}, "properties": {"sink_id": 16, "volume_m3": 243630.0, "max_depth_m": 0.98, "catchment_m2": 17100.0}}, {"type": "Feature", "geometry": {"type": "Point", "coordinates": [72.78550182237797, 19.19326961320508]}, "properties": {"sink_id": 560, "volume_m3": 234351.0, "max_depth_m": 6.21, "catchment_m2": 3600.0}}, {"type": "Feature", "geometry": {"type": "Point", "coordinates": [72.9000370211032, 19.295677555594704]}, "properties": {"sink_id": 52, "volume_m3": 216711.0, "max_depth_m": 1.29, "catchment_m2": 900.0}}, {"type": "Feature", "geometry": {"type": "Point", "coordinates": [72.83266337479424, 19.254714378638855]}, "properties": {"sink_id": 287, "volume_m3": 214272.0, "max_depth_m": 1.63, "catchment_m2": 158400.0}}, {"type": "Feature", "geometry": {"type": "Point", "coordinates": [72.79978503539547, 19.29082665306046]}, "properties": {"sink_id": 78, "volume_m3": 185337.0, "max_depth_m": 1.67, "catchment_m2": 900.0}}, {"type": "Feature", "geometry": {"type": "Point", "coordinates": [72.8000545299807, 19.24716853025225]}, "properties": {"sink_id": 365, "volume_m3": 174609.0, "max_depth_m": 1.68, "catchment_m2": 43200.0}}, {"type": "Feature", "geometry": {"type": "Point", "coordinates": [72.84074821235131, 19.254175389468383]}, "properties": {"sink_id": 318, "volume_m3": 168786.0, "max_depth_m": 1.57, "catchment_m2": 3600.0}}, {"type": "Feature", "geometry": {"type": "Point", "coordinates": [72.78657980071891, 19.27708242921343]}, "properties": {"sink_id": 116, "volume_m3": 165078.0, "max_depth_m": 1.18, "catchment_m2": 900.0}}, {"type": "Feature", "geometry": {"type": "Point", "coordinates": [72.90488792363745, 19.280585858821496]}, "properties": {"sink_id": 112, "volume_m3": 141741.0, "max_depth_m": 1.49, "catchment_m2": 900.0}}]}