{"type": "FeatureCollection", "features": [{"type": "Feature", "geometry": {"type": "Point", "coordinates": [72.87928593804004, 19.020523584068894]}, "properties": {"sink_id": 2, "volume_m3": 3846177.0, "max_depth_m": 3.07, "catchment_m2": 5032800.0}}, {"type": "Feature", "geometry": {"type": "Point", "coordinates": [72.81460723758344, 18.912456255389316]}, "properties": {"sink_id": 437, "volume_m3": 955476.0, "max_depth_m": 5.68, "catchment_m2": 77400.0}}, {"type": "Feature", "geometry": {"type": "Point", "coordinates": [72.84829406073793, 18.960426291561298]}, "properties": {"sink_id": 248, "volume_m3": 259092.0, "max_depth_m": 2.21, "catchment_m2": 900.0}}, {"type": "Feature", "geometry": {"type": "Point", "coordinates": [72.89410814022801, 19.001658963102386]}, "properties": {"sink_id": 111, "volume_m3": 251136.0, "max_depth_m": 1.28, "catchment_m2": 900.0}}, {"type": "Feature", "geometry": {"type": "Point", "coordinates": [72.81406824841297, 18.954227916100873]}, "properties": {"sink_id": 281, "volume_m3": 197937.0, "max_depth_m": 3.55, "catchment_m2": 9900.0}}, {"type": "Feature", "geometry": {"type": "Point", "coordinates": [72.82053611845863, 18.98441130964729]}, "properties": {"sink_id": 166, "volume_m3": 179199.0, "max_depth_m": 0.95, "catchment_m2": 20623500.0}}, {"type": "Feature", "geometry": {"type": "Point", "coordinates": [72.84721608239698, 19.02483549743267]}, "properties": {"sink_id": 36, "volume_m3": 118152.0, "max_depth_m": 0.53, "catchment_m2": 15300.0}}, {"type": "Feature", "geometry": {"type": "Point", "coordinates": [72.82269207514051, 18.94425661644715]}, "properties": {"sink_id": 326, "volume_m3": 88983.0, "max_depth_m": 2.75, "catchment_m2": 2700.0}}, {"type": "Feature", "geometry": {"type": "Point", "coordinates": [72.82889045060094, 18.930781887185354]}, "properties": {"sink_id": 386, "volume_m3": 59076.0, "max_depth_m": 1.67, "catchment_m2": 857700.0}}, {"type": "Feature", "geometry": {"type": "Point", "coordinates": [72.84020922318085, 18.939675208498137]}, "properties": {"sink_id": 341, "volume_m3": 51129.0, "max_depth_m": 2.1, "catchment_m2": 7200.0}}, {"type": "Feature", "geometry": {"type": "Point", "coordinates": [72.83697528815802, 18.926739468406815]}, "properties": {"sink_id": 405, "volume_m3": 42012.0, "max_depth_m": 8.68, "catchment_m2": 1800.0}}, {"type": "Feature", "geometry": {"type": "Point", "coordinates": [72.85071951200504, 18.97255354789691]}, "properties": {"sink_id": 209, "volume_m3": 38457.0, "max_depth_m": 1.54, "catchment_m2": 81000.0}}, {"type": "Feature", "geometry": {"type": "Point", "coordinates": [72.81703268885056, 18.9536889269304]}, "properties": {"sink_id": 295, "volume_m3": 37296.0, "max_depth_m": 3.1, "catchment_m2": 7200.0}}, {"type": "Feature", "geometry": {"type": "Point", "coordinates": [72.8420956852775, 18.937249757231015]}, "properties": {"sink_id": 370, "volume_m3": 36216.0, "max_depth_m": 4.33, "catchment_m2": 1800.0}}, {"type": "Feature", "geometry": {"type": "Point", "coordinates": [72.82996842894188, 19.004353908954744]}, "properties": {"sink_id": 119, "volume_m3": 33255.0, "max_depth_m": 0.3, "catchment_m2": 692100.0}}, {"type": "Feature", "geometry": {"type": "Point", "coordinates": [72.84236517986274, 18.942909143520968]}, "properties": {"sink_id": 353, "volume_m3": 32625.0, "max_depth_m": 2.06, "catchment_m2": 900.0}}, {"type": "Feature", "geometry": {"type": "Point", "coordinates": [72.82673449391905, 18.927547952162524]}, "properties": {"sink_id": 401, "volume_m3": 27720.0, "max_depth_m": 6.76, "catchment_m2": 252900.0}}, {"type": "Feature", "geometry": {"type": "Point", "coordinates": [72.88225037847764, 19.017289649046063]}, "properties": {"sink_id": 76, "volume_m3": 27630.0, "max_depth_m": 3.07, "catchment_m2": 4500.0}}, {"type": "Feature", "geometry": {"type": "Point", "coordinates": [72.82323106431099, 19.042622140058235]}, "properties": {"sink_id": 9, "volume_m3": 27585.0, "max_depth_m": 1.2, "catchment_m2": 3600.0}}, {"type": "Feature", "geometry": {"type": "Point", "coordinates": [72.87281806799439, 19.041274667132054]}, "properties": {"sink_id": 10, "volume_m3": 26208.0, "max_depth_m": 0.32, "catchment_m2": 2700.0}}, {"type": "Feature", "geometry": {"type": "Point", "coordinates": [72.82538702099288, 19.008935316903752]}, "properties": {"sink_id": 104, "volume_m3": 24399.0, "max_depth_m": 0.23, "catchment_m2": 900.0}}, {"type": "Feature", "geometry": {"type": "Point", "coordinates": [72.84344315820367, 18.943987121861912]}, "properties": {"sink_id": 336, "volume_m3": 23346.0, "max_depth_m": 1.36, "catchment_m2": 900.0}}, {"type": "Feature", "geometry": {"type": "Point", "coordinates": [72.81999712928815, 18.99815553349432]}, "properties": {"sink_id": 144, "volume_m3": 22914.0, "max_depth_m": 0.29, "catchment_m2": 386100.0}}, {"type": "Feature", "geometry": {"type": "Point", "coordinates": [72.83859225566943, 19.043430623813943]}, "properties": {"sink_id": 6, "volume_m3": 21339.0, "max_depth_m": 1.48, "catchment_m2": 8100.0}}, {"type": "Feature", "geometry": {"type": "Point", "coordinates": [72.803827454174, 18.95126347566328]}, "properties": {"sink_id": 307, "volume_m3": 18423.0, "max_depth_m": 4.09, "catchment_m2": 1800.0}}]}