{"type": "FeatureCollection", "features": [{"type": "Feature", "geometry": {"type": "Point", "coordinates": [77.2682747531912, 12.73617935095396]}, "properties": {"sink_id": 116, "volume_m3": 100524.0, "max_depth_m": 1.87, "catchment_m2": 89100.0}}, {"type": "Feature", "geometry": {"type": "Point", "coordinates": [77.24509821886092, 12.779837473762168]}, "properties": {"sink_id": 14, "volume_m3": 66945.0, "max_depth_m": 1.33, "catchment_m2": 1854900.0}}, {"type": "Feature", "geometry": {"type": "Point", "coordinates": [77.23997782174143, 12.773100109131272]}, "properties": {"sink_id": 34, "volume_m3": 66930.0, "max_depth_m": 1.65, "catchment_m2": 525600.0}}, {"type": "Feature", "geometry": {"type": "Point", "coordinates": [77.3313364861364, 12.752618520653346]}, "properties": {"sink_id": 85, "volume_m3": 63314.0, "max_depth_m": 1.9, "catchment_m2": 7200.0}}, {"type": "Feature", "geometry": {"type": "Point", "coordinates": [77.281749482453, 12.734292888857308]}, "properties": {"sink_id": 110, "volume_m3": 57103.0, "max_depth_m": 1.33, "catchment_m2": 165600.0}}, {"type": "Feature", "geometry": {"type": "Point", "coordinates": [77.257764464367, 12.789808773415896]}, "properties": {"sink_id": 2, "volume_m3": 52326.0, "max_depth_m": 1.67, "catchment_m2": 2700.0}}, {"type": "Feature", "geometry": {"type": "Point", "coordinates": [77.29764966298191, 12.76474577698896]}, "properties": {"sink_id": 56, "volume_m3": 47168.0, "max_depth_m": 2.55, "catchment_m2": 1800.0}}, {"type": "Feature", "geometry": {"type": "Point", "coordinates": [77.23189298418437, 12.764476282403724]}, "properties": {"sink_id": 58, "volume_m3": 36568.0, "max_depth_m": 2.1, "catchment_m2": 3600.0}}, {"type": "Feature", "geometry": {"type": "Point", "coordinates": [77.30034460883427, 12.770405163278912]}, "properties": {"sink_id": 32, "volume_m3": 31931.0, "max_depth_m": 1.22, "catchment_m2": 7759800.0}}, {"type": "Feature", "geometry": {"type": "Point", "coordinates": [77.30950742473229, 12.661798845428862]}, "properties": {"sink_id": 307, "volume_m3": 27954.0, "max_depth_m": 3.34, "catchment_m2": 454500.0}}, {"type": "Feature", "geometry": {"type": "Point", "coordinates": [77.32998901321021, 12.71003837618608]}, "properties": {"sink_id": 183, "volume_m3": 21087.0, "max_depth_m": 0.89, "catchment_m2": 1800.0}}, {"type": "Feature", "geometry": {"type": "Point", "coordinates": [77.27635959074829, 12.698180614435703]}, "properties": {"sink_id": 207, "volume_m3": 18477.0, "max_depth_m": 1.0, "catchment_m2": 5400.0}}, {"type": "Feature", "geometry": {"type": "Point", "coordinates": [77.28417493372012, 12.66395480211075]}, "properties": {"sink_id": 299, "volume_m3": 17541.0, "max_depth_m": 2.57, "catchment_m2": 401400.0}}, {"type": "Feature", "geometry": {"type": "Point", "coordinates": [77.2141063415588, 12.716775740816978]}, "properties": {"sink_id": 160, "volume_m3": 15309.0, "max_depth_m": 0.63, "catchment_m2": 900.0}}, {"type": "Feature", "geometry": {"type": "Point", "coordinates": [77.33160598072163, 12.670961661326881]}, "properties": {"sink_id": 291, "volume_m3": 13365.0, "max_depth_m": 0.73, "catchment_m2": 156891600.0}}, {"type": "Feature", "geometry": {"type": "Point", "coordinates": [77.21895724409305, 12.6763515530316]}, "properties": {"sink_id": 271, "volume_m3": 12239.0, "max_depth_m": 0.7, "catchment_m2": 339300.0}}, {"type": "Feature", "geometry": {"type": "Point", "coordinates": [77.2170707819964, 12.702762022384713]}, "properties": {"sink_id": 196, "volume_m3": 9855.0, "max_depth_m": 1.85, "catchment_m2": 3600.0}}, {"type": "Feature", "geometry": {"type": "Point", "coordinates": [77.27609009616305, 12.684436390588674]}, "properties": {"sink_id": 255, "volume_m3": 9477.0, "max_depth_m": 1.39, "catchment_m2": 150300.0}}, {"type": "Feature", "geometry": {"type": "Point", "coordinates": [77.224616630383, 12.686322852685326]}, "properties": {"sink_id": 243, "volume_m3": 9181.0, "max_depth_m": 1.12, "catchment_m2": 2700.0}}, {"type": "Feature", "geometry": {"type": "Point", "coordinates": [77.28956482542483, 12.738335307635847]}, "properties": {"sink_id": 117, "volume_m3": 8649.0, "max_depth_m": 1.75, "catchment_m2": 122400.0}}, {"type": "Feature", "geometry": {"type": "Point", "coordinates": [77.29252926586243, 12.728902997152591]}, "properties": {"sink_id": 130, "volume_m3": 7902.0, "max_depth_m": 1.31, "catchment_m2": 28896300.0}}, {"type": "Feature", "geometry": {"type": "Point", "coordinates": [77.3237906377498, 12.675273574690657]}, "properties": {"sink_id": 277, "volume_m3": 7803.0, "max_depth_m": 1.0, "catchment_m2": 103500.0}}, {"type": "Feature", "geometry": {"type": "Point", "coordinates": [77.27285616114021, 12.710846859941789]}, "properties": {"sink_id": 182, "volume_m3": 7335.0, "max_depth_m": 1.45, "catchment_m2": 20700.0}}, {"type": "Feature", "geometry": {"type": "Point", "coordinates": [77.24078630549715, 12.78361039795547]}, "properties": {"sink_id": 12, "volume_m3": 6858.0, "max_depth_m": 1.36, "catchment_m2": 1800.0}}, {"type": "Feature", "geometry": {"type": "Point", "coordinates": [77.25668648602607, 12.724321589203582]}, "properties": {"sink_id": 147, "volume_m3": 6570.0, "max_depth_m": 0.82, "catchment_m2": 6051600.0}}]}